[{"OBJECT_NAME":"IRIDE-MS2-HEO-5","OBJECT_ID":"2025-135AV","EPOCH":"2026-03-09T22:29:41.176896","MEAN_MOTION":14.9349765,"ECCENTRICITY":0.0001273,"INCLINATION":97.7596,"RA_OF_ASC_NODE":184.3874,"ARG_OF_PERICENTER":293.2416,"MEAN_ANOMALY":66.867,"EPHEMERIS_TYPE":0,"CLASSIFICATION_TYPE":"U","NORAD_CAT_ID":64571,"ELEMENT_SET_NO":999,"REV_AT_EPOCH":3907,"BSTAR":0.00038834386,"MEAN_MOTION_DOT":4.032e-5,"MEAN_MOTION_DDOT":0},{"OBJECT_NAME":"TRACERS 1","OBJECT_ID":"2025-154B","EPOCH":"2026-03-09T22:30:44.529696","MEAN_MOTION":14.93154596,"ECCENTRICITY":0.00045304,"INCLINATION":97.6795,"RA_OF_ASC_NODE":134.9733,"ARG_OF_PERICENTER":213.6392,"MEAN_ANOMALY":146.4541,"EPHEMERIS_TYPE":0,"CLASSIFICATION_TYPE":"U","NORAD_CAT_ID":64870,"ELEMENT_SET_NO":999,"REV_AT_EPOCH":3418,"BSTAR":0.00024898886,"MEAN_MOTION_DOT":2.543e-5,"MEAN_MOTION_DDOT":0}]
